CZ-4B R/B               
1 28059U 03049C   24102.49111599  .00000484  00000+0  12573-3 0  9994
2 28059  98.6047  63.0127 0048754 198.3300 161.6140 14.53654285 85231
CZ-2C R/B               
1 28222U 04012C   24102.50355015  .00010564  00000+0  43139-3 0  9994
2 28222  97.8081 112.6262 0033572 283.1956  76.5535 15.24074682 96954
SL-16 R/B               
1 28353U 04021B   24102.11944689  .00000066  00000+0  59130-4 0  9992
2 28353  70.9987 256.1862 0004648 354.8585   5.2489 14.14391226 24190
CZ-4B R/B               
1 28415U 04035C   24102.10559725  .00005255  00000+0  28257-3 0  9998
2 28415  97.4314 137.2828 0042102 255.2105 104.4460 15.14535323 73809
CZ-2C R/B               
1 28480U 04046B   24102.44733452  .00000390  00000+0  16091-3 0  9998
2 28480  98.1569  51.1651 0141973  56.9950 304.4783 14.26291118  9081
ARIANE 5 R/B            
1 28499U 04049H   24102.10431175  .00001415  00000+0  17212-3 0  9996
2 28499  98.1727 238.5653 0089776  90.0644 271.0856 14.82311249 42358
CZ-2D R/B               
1 28738U 05024B   24102.54543787  .00010803  00000+0  44593-3 0  9990
2 28738  97.3650 102.1586 0009984  32.1179 328.0665 15.24162007 32515
SUZAKU (ASTRO-EII)      
1 28773U 05025A   24102.08112784  .00023244  00000+0  53887-3 0  9997
2 28773  31.3879 233.4299 0001649 355.1680   4.8958 15.41199147 36634
ALOS (DAICHI)           
1 28931U 06002A   24102.45589835  .00001593  00000+0  30344-3 0  9991
2 28931  98.0313  56.9836 0001955  56.3199 303.8191 14.65380155971571
H-2A R/B                
1 28932U 06002B   24102.23210265  .00005443  00000+0  41692-3 0  9992
2 28932  98.2066 190.2195 0074646  66.1867 294.7157 15.00095380989399
RESURS-DK 1             
1 29228U 06021A   24102.51447944  .00002771  00000+0  19257-3 0  9992
2 29228  69.9344 232.6865 0002268 167.4071 192.7149 15.06762524982309
GENESIS 1               
1 29252U 06029A   24101.90726865  .00017234  00000+0  49947-3 0  9990
2 29252  64.5186  32.7283 0015724 333.1341  26.8974 15.35568129980248
CZ-4B R/B               
1 29507U 06046C   24101.97165060  .00004151  00000+0  27773-3 0  9990
2 29507  97.6514 138.4326 0042145 144.6859 215.7174 15.06768822954591
CZ-2C R/B               
1 31114U 07010B   24101.95361025  .00000186  00000+0  10475-3 0  9991
2 31114  98.3208 241.9863 0059886 163.1750 197.1432 14.19740712880698
COSMO-SKYMED 1          
1 31598U 07023A   24102.50307357  .00000742  00000+0  99742-4 0  9994
2 31598  97.8865 286.6265 0001340  86.2121 273.9245 14.82166301911313
GENESIS 2               
1 31789U 07028A   24102.33259434  .00014664  00000+0  44292-3 0  9991
2 31789  64.4906  76.5932 0029075 226.0664 133.8067 15.34058877927217
COSMOS 2428             
1 31792U 07029A   24102.49942487 -.00000022  00000+0  13725-4 0  9992
2 31792  70.9471 226.6842 0008903 157.5647 202.5865 14.12713705865702
SL-16 R/B               
1 31793U 07029B   24102.54094132 -.00000175  00000+0 -65946-4 0  9996
2 31793  70.9757 197.6184 0002625 276.0001  95.5474 14.14604599866868
KORONAS-FOTON           
1 33504U 09003A   24101.90559157  .00006720  00000+0  26818-3 0  9998
2 33504  82.4343 270.8156 0016872 117.3402 242.9555 15.24851061838769
CZ-2C R/B               
1 37731U 11030B   24102.49101920  .00001633  00000+0  23076-3 0  9994
2 37731  97.7581  68.8425 0058163  96.3617  17.9156 14.77297627687000
H-2A R/B                
1 38341U 12025E   24102.45097360  .00002505  00000+0  27315-3 0  9994
2 38341  98.4271   9.8096 0052629  65.0784 295.5887 14.87975791644341
CUSAT 2 & FALCON 9 R/B  
1 39271U 13055G   24101.87628855  .00054254 -19310-6  70265-3 0  9997
2 39271  80.9375 160.3367 0338813 171.7478 188.9530 15.12595172555167
SHIJIAN-16 (SJ-16)      
1 39358U 13057A   24102.51260601  .00001488  00000+0  16313-3 0  9991
2 39358  74.9729  61.4450 0017750 354.3742   5.7241 14.88397917567695
CZ-2C R/B               
1 39364U 13059B   24102.12590855  .00098555  00000+0  73348-3 0  9996
2 39364  97.0499 150.7213 0017265  74.3679 285.9489 15.72303139582656
SL-4 R/B                
1 39679U 14021B   24102.19067303  .00005149  00000+0  20651-3 0  9995
2 39679  51.6103  85.8904 0140720 120.6608 240.8324 15.18163536549902
ALOS-2                  
1 39766U 14029A   24102.55945795  .00002332  00000+0  31902-3 0  9992
2 39766  97.9196 200.1578 0001478  98.2706 261.8673 14.79479521533822
SL-27 R/B               
1 40354U 14084B   24102.13355427  .00034302  00000+0  29623-3 0  9998
2 40354  74.7276 355.4929 0023618 195.6286 164.4215 15.68676174524000
YAOGAN-29               
1 41038U 15069A   24102.52399572  .00000597  00000+0  82842-4 0  9996
2 41038  98.0592 116.5386 0003427  95.1084 265.0519 14.81610751452591
ASTRO-H (HITOMI)        
1 41337U 16012A   24101.61373506  .00002784  00000+0  19465-3 0  9995
2 41337  31.0015 159.8720 0011393 184.1079 175.9465 15.03156711446842
HXMT (HUIYAN)           
1 42758U 17034A   24101.99904341  .00006279  00000+0  34046-3 0  9991
2 42758  43.0145 286.2989 0005315  86.4215 273.7240 15.15171609376679
CZ-2C R/B               
1 43521U 18054D   24101.69477308  .00014477  00000+0  52079-3 0  9993
2 43521  35.1505 182.9791 0061091 239.5566 119.9106 15.25986761320547
SAOCOM 1A               
1 43641U 18076A   24102.51159940  .00000641  00000+0  87145-4 0  9992
2 43641  97.8893 289.6983 0001397  91.5780 268.5593 14.82151537298092
H-2A R/B                
1 43682U 18084L   24102.47972283  .00007262  00000+0  40424-3 0  9998
2 43682  98.8527 179.1455 0045703 231.1229 128.5917 15.13137388299402
SAOCOM 1B               
1 46265U 20059A   24102.47532002  .00000592  00000+0  80924-4 0  9993
2 46265  97.8891 288.7554 0001514  87.5933 272.5454 14.82171414195481
CSS (TIANHE)            
1 48274U 21035A   24102.47651548  .00019979  00000+0  19927-3 0  9990
2 48274  41.4671 130.6962 0008172   9.6349 350.4647 15.65131153168652
COSMOS 2550             
1 48865U 21056A   24102.38319143 -.00000005  00000+0  56862-5 0  9993
2 48865  67.1414 350.3940 0008404 269.5052  90.5140 15.33843331156538
2022-019U               
1 51842U 22019U   24102.56768417  .00070986  00000+0  84949-3 0  9993
2 51842  97.5104 204.7159 0029895 337.6450  22.3501 15.60192398118677
CZ-2C R/B               
1 52794U 22058K   24102.39182376  .00010195  00000+0  42278-3 0  9993
2 52794  50.1715 208.3456 0084485 220.5052 138.9597 15.21198442102946
CZ-2C R/B               
1 53131U 22082D   24102.50282997  .00318981  41949-4  81528-3 0  9996
2 53131  97.3063 134.1610 0014081 190.8011 169.2964 15.95153047 98546
XRISM                   
1 57800U 23137A   24102.38556214  .00004448  00000+0  34049-3 0  9991
2 57800  31.0034  77.5544 0010293 266.1561  93.7898 15.00226997 32647
